J98P01B 17.0   0.15 J988F   9.31146  350.08630  299.92023    5.96451  0.4306089  0.34198543   2.0251832    MPC 32527   118   1   24 days 0.56         Williams  
